KAITUO 1B               
1 40912U 15049P   18020.81397896  .00001098  00000-0  56591-4 0  9995
2 40912  97.4503  30.2618 0015897 157.9617 279.5372 15.18385362129304
TIANWANG 1C (TW-1C)     
1 40926U 15051B   18021.18470400  .00005982  00000-0  12121-3 0  9993
2 40926  97.2027  64.2994 0012500  94.2105 301.8847 15.46695430130573
TIANWANG 1B (TW-1B)     
1 40927U 15051C   18021.15585139  .00005849  00000-0  12341-3 0  9993
2 40927  97.2120  64.1821 0012415 104.3770 290.3437 15.45522267130496
TIANWANG 1A (TW-1A)     
1 40928U 15051D   18020.86648718  .00002515  00000-0  69673-4 0  9992
2 40928  97.2028  57.7031 0013608 127.8307 319.3289 15.37815248130139
LAPAN-A2 (IO-86)        
1 40931U 15052B   18020.74286639  .00000721  00000-0  11387-4 0  9990
2 40931   6.0032 121.5318 0013573  80.7308 279.4311 14.76562591125175
LQSAT                   
1 40958U 15057A   18020.89625025  .00000002  00000-0  80303-5 0  9993
2 40958  97.9569  97.1656 0019690  89.1114 271.2334 14.73012202123163
CHUBUSAT-2              
1 41338U 16012B   18020.71263566  .00000326  00000-0  18804-4 0  9992
2 41338  31.0022 170.5677 0013800  52.3733 307.8153 14.99906845105678
CHUBUSAT-3              
1 41339U 16012C   18021.07776614  .00000239  00000-0  11948-4 0  9991
2 41339  31.0062 167.0570 0013393  63.1734 297.0259 15.00098625105717
OUFTI-1                 
1 41458U 16025C   18020.84749973  .00000316  00000-0  21519-4 0  9990
2 41458  98.1558  75.7153 0169724 281.7149  76.5076 15.04161018 95292
E-ST@R-II               
1 41459U 16025D   18020.76341219  .00001576  00000-0  87421-4 0  9996
2 41459  98.1560  75.5176 0171280 282.4310  75.7787 15.03933588 95262
AAUSAT 4                
1 41460U 16025E   18021.20558598  .00001882  00000-0  10306-3 0  9995
2 41460  98.1516  76.2814 0162108 277.8335  80.4519 15.05188956 95377
NUSAT 1 (LO-87)         
1 41557U 16033B   18020.96426912  .00001286  00000-0  49869-4 0  9992
2 41557  97.4472 105.4116 0012855 323.6378  36.3987 15.27927271 91670
BEESAT-4                
1 41619U 16040W   18020.72425099  .00001410  00000-0  65326-4 0  9993
2 41619  97.4355  85.7967 0012535  34.4517 325.7529 15.21676321 75669
PRATHAM                 
1 41783U 16059A   18020.94554090  .00000061  00000-0  21181-4 0  9995
2 41783  98.1391  84.7307 0033363 195.7608 164.2558 14.62895476 70436
ALSAT 1N                
1 41789U 16059G   18021.16309598  .00000066  00000-0  21630-4 0  9991
2 41789  98.1396  85.8735 0028109 187.0518 173.0300 14.64120495 70505
NAYIF-1 (EO-88)         
1 42017U 17008BX  18021.10529904  .00001520  00000-0  65805-4 0  9998
2 42017  97.4682  86.9320 0006884 163.9133 196.2324 15.23962197 51662
LILACSAT-1              
1 42725U 98067ME  18021.14833922  .00020605  00000-0  22790-3 0  9990
2 42725  51.6383  24.2889 0006024  43.9645 316.1827 15.62974611 37486
MAX VALIER SAT          
1 42778U 17036P   18020.76291182  .00000989  00000-0  47688-4 0  9995
2 42778  97.4246  82.7880 0011782 220.3653 139.6709 15.20987020 32098
FOX-1B (AO-91)          
1 43017U 17073E   18020.28504858  .00001036  00000-0  86507-4 0  9994
2 43017  97.6978 317.6896 0261398  33.3164 328.4197 14.77849542  9264
FOX-1D (AO-92)          
1 43137U 18004AC  18021.14444935  .00001016  00000-0  47134-4 0  9998
2 43137  97.5547  83.3094 0008107 251.8454 108.1899 15.22375624  1339
